ONEWEB-0012             
1 44057U 19010A   26190.06428589 -.00000156  00000+0 -44139-3 0  9998
2 44057  87.9074 224.4403 0001637  92.3203 267.8116 13.16594274354445
ONEWEB-0010             
1 44058U 19010B   26190.08963437  .00000199  00000+0  48807-3 0  9998
2 44058  87.9089 224.4309 0002139 103.8899 256.2470 13.16593150354496
ONEWEB-0008             
1 44059U 19010C   26190.03896561 -.00000023  00000+0 -94499-4 0  9994
2 44059  87.9082 224.4358 0002228  89.3460 270.7926 13.16593481354602
ONEWEB-0007             
1 44060U 19010D   26190.16750080  .00000146  00000+0  35387-3 0  9999
2 44060  87.8987 254.8420 0001865 105.7031 254.4305 13.15547980354261
ONEWEB-0006             
1 44061U 19010E   26190.17145899  .00000140  00000+0  33797-3 0  9994
2 44061  87.9002 254.8078 0002163  98.9355 261.2021 13.15550217354318
ONEWEB-0011             
1 44062U 19010F   26189.68341733 -.00000064  00000+0 -20499-3 0  9996
2 44062  87.8999 254.9149 0002256  98.9804 261.1581 13.15549076354248
ONEWEB-0013             
1 45131U 20008A   26190.02351814 -.00000687  00000+0 -20310-2 0  9996
2 45131  87.8499  48.4173 0001190  50.6340 309.4892 13.09460728308924
ONEWEB-0017             
1 45132U 20008B   26189.60894641 -.00000087  00000+0 -28542-3 0  9999
2 45132  87.8817  31.9996 0001926  92.2134 267.9213 13.10377894310751
ONEWEB-0020             
1 45133U 20008C   26190.03651927 -.00000240  00000+0 -72395-3 0  9993
2 45133  87.8815  31.9139 0001851  87.0124 273.1215 13.10368618311203
ONEWEB-0021             
1 45134U 20008D   26189.59363084 -.00000708  00000+0 -20645-2 0  9996
2 45134  87.8813  32.0165 0001690  88.2363 271.8958 13.10372242311456
ONEWEB-0023             
1 45136U 20008F   26189.98645569 -.00000429  00000+0 -12640-2 0  9998
2 45136  87.8829  31.9220 0001871  80.7381 279.3958 13.10374791310939
ONEWEB-0024             
1 45137U 20008G   26189.50044612 -.00000268  00000+0 -80356-3 0  9990
2 45137  87.8823  32.0119 0001882  92.0745 268.0597 13.10369636311033
ONEWEB-0025             
1 45138U 20008H   26190.03468016 -.00000078  00000+0 -25907-3 0  9999
2 45138  87.8817  31.8966 0002207  84.7086 275.4294 13.10369236311438
ONEWEB-0026             
1 45139U 20008J   26189.97944841  .00000416  00000+0  11389-2 0  9998
2 45139  87.8876  16.7284 0001962  91.4195 268.7158 13.11415062313966
ONEWEB-0028             
1 45140U 20008K   26189.87856508  .00000167  00000+0  43614-3 0  9991
2 45140  87.8875  16.7558 0001381  75.0455 285.0826 13.11418267311460
ONEWEB-0032             
1 45141U 20008L   26189.99256049  .00000005  00000+0 -20809-4 0  9993
2 45141  87.8818  31.9250 0001586  71.6365 288.4935 13.10376551311157
ONEWEB-0033             
1 45142U 20008M   26189.96693955 -.00000498  00000+0 -14641-2 0  9994
2 45142  87.8810  31.9361 0002163  98.0271 262.1102 13.10369776311060
ONEWEB-0035             
1 45143U 20008N   26189.98747099  .00001966  00000+0  55954-2 0  9997
2 45143  87.8813  31.9254 0001711  89.9106 270.2218 13.10368482310799
ONEWEB-0036             
1 45144U 20008P   26189.96513520 -.00000480  00000+0 -14106-2 0  9992
2 45144  87.8827  31.9462 0001669  80.3648 279.7668 13.10366099311217
ONEWEB-0038             
1 45145U 20008Q   26190.75272397  .00000174  00000+0  45495-3 0  9990
2 45145  87.8890  16.5864 0001573 148.7548 211.3674 13.11414991313289
ONEWEB-0039             
1 45146U 20008R   26189.97034077 -.00000312  00000+0 -93107-3 0  9993
2 45146  87.8812  31.9265 0001356  73.5313 286.5963 13.10371510311016
ONEWEB-0040             
1 45147U 20008S   26189.27632150 -.00000489  00000+0 -14362-2 0  9993
2 45147  87.8812  32.0756 0001954  77.7823 282.3523 13.10369705310625
ONEWEB-0043             
1 45149U 20008U   26189.96539350 -.00000064  00000+0 -21925-3 0  9992
2 45149  87.8821  31.9272 0001379  74.9582 285.1698 13.10368367311033
ONEWEB-0044             
1 45150U 20008V   26189.99413033  .00000019  00000+0  19567-4 0  9994
2 45150  87.8823  31.9231 0001738  80.7887 279.3437 13.10378123311334
ONEWEB-0045             
1 45151U 20008W   26190.74750208  .00000378  00000+0  10302-2 0  9992
2 45151  87.8883  16.5688 0001696  88.8002 271.3321 13.11414901313362
ONEWEB-0047             
1 45152U 20008X   26190.29259739 -.00000322  00000+0 -95804-3 0  9998
2 45152  87.8824  31.8629 0001799  93.5245 266.6088 13.10374921311090
ONEWEB-0048             
1 45153U 20008Y   26189.98222669 -.00001453  00000+0 -42005-2 0  9995
2 45153  87.8820  31.9447 0001792  88.5988 271.5344 13.10364122310661
ONEWEB-0049             
1 45154U 20008Z   26189.98546371 -.00000367  00000+0 -10876-2 0  9999
2 45154  87.8814  31.9325 0001991  75.7205 284.4143 13.10374496310880
ONEWEB-0051             
1 45155U 20008AA  26190.74581167  .00000469  00000+0  12883-2 0  9999
2 45155  87.8877  16.5750 0001818  88.8237 271.3099 13.11416576314043
ONEWEB-0052             
1 45156U 20008AB  26190.54065581  .00000533  00000+0  14893-2 0  9990
2 45156  87.8819  31.8091 0001898  74.0107 286.1229 13.10376603310869
