OBJECT_NAME,OBJECT_ID,EPOCH,MEAN_MOTION,ECCENTRICITY,INCLINATION,RA_OF_ASC_NODE,ARG_OF_PERICENTER,MEAN_ANOMALY,EPHEMERIS_TYPE,CLASSIFICATION_TYPE,NORAD_CAT_ID,ELEMENT_SET_NO,REV_AT_EPOCH,BSTAR,MEAN_MOTION_DOT,MEAN_MOTION_DDOT
ONEWEB-0012,2019-010A,2026-07-09T01:32:34.300896,13.16594274,.00016379,87.9074,224.4403,92.3203,267.8116,0,U,44057,999,35444,-.44139432E-3,-.156E-5,0
ONEWEB-0010,2019-010B,2026-07-09T02:09:04.409568,13.16593150,.00021395,87.9089,224.4309,103.8899,256.2470,0,U,44058,999,35449,.48806639E-3,.199E-5,0
ONEWEB-0008,2019-010C,2026-07-09T00:56:06.628704,13.16593481,.00022286,87.9082,224.4358,89.3460,270.7926,0,U,44059,999,35460,-.94498888E-4,-.23E-6,0
ONEWEB-0007,2019-010D,2026-07-09T04:01:12.069120,13.15547980,.00018654,87.8987,254.8420,105.7031,254.4305,0,U,44060,999,35426,.35386623E-3,.146E-5,0
ONEWEB-0006,2019-010E,2026-07-09T04:06:54.056736,13.15550217,.0002163,87.9002,254.8078,98.9355,261.2021,0,U,44061,999,35431,.33797487E-3,.14E-5,0
ONEWEB-0011,2019-010F,2026-07-08T16:24:07.257312,13.15549076,.00022561,87.8999,254.9149,98.9804,261.1581,0,U,44062,999,35424,-.20498612E-3,-.64E-6,0
ONEWEB-0013,2020-008A,2026-07-09T00:33:51.967296,13.09460728,.000119,87.8499,48.4173,50.6340,309.4892,0,U,45131,999,30892,-.20310055E-2,-.687E-5,0
ONEWEB-0017,2020-008B,2026-07-08T14:36:52.969824,13.10377894,.00019265,87.8817,31.9996,92.2134,267.9213,0,U,45132,999,31075,-.28542367E-3,-.87E-6,0
ONEWEB-0020,2020-008C,2026-07-09T00:52:35.264928,13.10368618,.00018513,87.8815,31.9139,87.0124,273.1215,0,U,45133,999,31120,-.72394701E-3,-.24E-5,0
ONEWEB-0021,2020-008D,2026-07-08T14:14:49.704576,13.10372242,.00016905,87.8813,32.0165,88.2363,271.8958,0,U,45134,999,31145,-.20645041E-2,-.708E-5,0
ONEWEB-0023,2020-008F,2026-07-08T23:40:29.771616,13.10374791,.0001871,87.8829,31.9220,80.7381,279.3958,0,U,45136,999,31093,-.12640391E-2,-.429E-5,0
ONEWEB-0024,2020-008G,2026-07-08T12:00:38.544768,13.10369636,.00018823,87.8823,32.0119,92.0745,268.0597,0,U,45137,999,31103,-.80355718E-3,-.268E-5,0
ONEWEB-0025,2020-008H,2026-07-09T00:49:56.365824,13.10369236,.00022072,87.8817,31.8966,84.7086,275.4294,0,U,45138,999,31143,-.2590669E-3,-.78E-6,0
ONEWEB-0026,2020-008J,2026-07-08T23:30:24.342624,13.11415062,.00019624,87.8876,16.7284,91.4195,268.7158,0,U,45139,999,31396,.11389493E-2,.416E-5,0
ONEWEB-0028,2020-008K,2026-07-08T21:05:08.022912,13.11418267,.00013817,87.8875,16.7558,75.0455,285.0826,0,U,45140,999,31146,.43614304E-3,.167E-5,0
ONEWEB-0032,2020-008L,2026-07-08T23:49:17.226336,13.10376551,.0001586,87.8818,31.9250,71.6365,288.4935,0,U,45141,999,31115,-.20808797E-4,.5E-7,0
ONEWEB-0033,2020-008M,2026-07-08T23:12:23.577120,13.10369776,.00021637,87.8810,31.9361,98.0271,262.1102,0,U,45142,999,31106,-.14640921E-2,-.498E-5,0
ONEWEB-0035,2020-008N,2026-07-08T23:41:57.493536,13.10368482,.00017111,87.8813,31.9254,89.9106,270.2218,0,U,45143,999,31079,.55954299E-2,.1966E-4,0
ONEWEB-0036,2020-008P,2026-07-08T23:09:47.681280,13.10366099,.00016697,87.8827,31.9462,80.3648,279.7668,0,U,45144,999,31121,-.14106472E-2,-.48E-5,0
ONEWEB-0038,2020-008Q,2026-07-09T18:03:55.351008,13.11414991,.0001573,87.8890,16.5864,148.7548,211.3674,0,U,45145,999,31328,.45495E-3,.174E-5,0
ONEWEB-0039,2020-008R,2026-07-08T23:17:17.442528,13.10371510,.00013566,87.8812,31.9265,73.5313,286.5963,0,U,45146,999,31101,-.93107177E-3,-.312E-5,0
ONEWEB-0040,2020-008S,2026-07-08T06:37:54.177600,13.10369705,.00019544,87.8812,32.0756,77.7823,282.3523,0,U,45147,999,31062,-.14362187E-2,-.489E-5,0
ONEWEB-0043,2020-008U,2026-07-08T23:10:09.998400,13.10368367,.00013792,87.8821,31.9272,74.9582,285.1698,0,U,45149,999,31103,-.21924573E-3,-.64E-6,0
ONEWEB-0044,2020-008V,2026-07-08T23:51:32.860512,13.10378123,.00017386,87.8823,31.9231,80.7887,279.3437,0,U,45150,999,31133,.19567316E-4,.19E-6,0
ONEWEB-0045,2020-008W,2026-07-09T17:56:24.179712,13.11414901,.0001696,87.8883,16.5688,88.8002,271.3321,0,U,45151,999,31336,.10302E-2,.378E-5,0
ONEWEB-0047,2020-008X,2026-07-09T07:01:20.414496,13.10374921,.0001799,87.8824,31.8629,93.5245,266.6088,0,U,45152,999,31109,-.95803836E-3,-.322E-5,0
ONEWEB-0048,2020-008Y,2026-07-08T23:34:24.386016,13.10364122,.00017921,87.8820,31.9447,88.5988,271.5344,0,U,45153,999,31066,-.42005307E-2,-.1453E-4,0
ONEWEB-0049,2020-008Z,2026-07-08T23:39:04.064544,13.10374496,.00019911,87.8814,31.9325,75.7205,284.4143,0,U,45154,999,31088,-.10875723E-2,-.367E-5,0
ONEWEB-0051,2020-008AA,2026-07-09T17:53:58.128288,13.11416576,.0001818,87.8877,16.5750,88.8237,271.3099,0,U,45155,999,31404,.12883E-2,.469E-5,0
ONEWEB-0052,2020-008AB,2026-07-09T12:58:32.661984,13.10376603,.0001898,87.8819,31.8091,74.0107,286.1229,0,U,45156,999,31086,.14893E-2,.533E-5,0
